$$SOE
2460721.500000000, A.D. 2025-Feb-15 00:00:00.0000, 6.623305860398792E+07, -5.192533050763734E+08, -1.169807712269684E+08,
2460728.500000000, A.D. 2025-Feb-22 00:00:00.0000, 7.487536732814492E+07, -5.188324963900728E+08, -1.182963819326606E+08,
2460735.500000000, A.D. 2025-Mar-01 00:00:00.0000, 8.349425869444051E+07, -5.182494568571718E+08, -1.195749867333702E+08,
2460742.500000000, A.D. 2025-Mar-08 00:00:00.0000, 9.208718340052174E+07, -5.175052606674626E+08, -1.208163917833013E+08,
2460749.500000000, A.D. 2025-Mar-15 00:00:00.0000, 1.006516253393779E+08, -5.166009968170397E+08, -1.220204118292178E+08,
2460756.500000000, A.D. 2025-Mar-22 00:00:00.0000, 1.091850985424298E+08, -5.155377681362966E+08, -1.231868697198547E+08,
2460763.500000000, A.D. 2025-Mar-29 00:00:00.0000, 1.176851455029564E+08, -5.143166926125699E+08, -1.243155962339629E+08,
2460770.500000000, A.D. 2025-Apr-05 00:00:00.0000, 1.261493372059795E+08, -5.129389038679467E+08, -1.254064300005919E+08,
2460777.500000000, A.D. 2025-Apr-12 00:00:00.0000, 1.345752729390981E+08, -5.114055506871876E+08, -1.264592173267187E+08,
2460784.500000000, A.D. 2025-Apr-19 00:00:00.0000, 1.429605796973475E+08, -5.097177964757352E+08, -1.274738119872365E+08,
2460791.500000000, A.D. 2025-Apr-26 00:00:00.0000, 1.513029114539675E+08, -5.078768188493723E+08, -1.284500750189267E+08,
2460798.500000000, A.D. 2025-May-03 00:00:00.0000, 1.595999484108927E+08, -5.058838093348628E+08, -1.293878745273328E+08,
2460805.500000000, A.D. 2025-May-10 00:00:00.0000, 1.678493962576074E+08, -5.037399731713949E+08, -1.302870855084333E+08,
2460812.500000000, A.D. 2025-May-17 00:00:00.0000, 1.760489854751461E+08, -5.014465292523412E+08, -1.311475896917385E+08,
2460819.500000000, A.D. 2025-May-24 00:00:00.0000, 1.841964708592075E+08, -4.990047102604090E+08, -1.319692754250771E+08,
2460826.500000000, A.D. 2025-May-31 00:00:00.0000, 1.922896316801380E+08, -4.964157626839827E+08, -1.327520376137877E+08,
2460833.500000000, A.D. 2025-Jun-07 00:00:00.0000, 2.003262720786775E+08, -4.936809455086716E+08, -1.334957775787884E+08,
2460840.500000000, A.D. 2025-Jun-14 00:00:00.0000, 2.083042193326601E+08, -4.908015282493142E+08, -1.342004026706670E+08,
2460847.500000000, A.D. 2025-Jun-21 00:00:00.0000, 2.162213212116427E+08, -4.877787915917331E+08, -1.348658260182242E+08,
2460854.500000000, A.D. 2025-Jun-28 00:00:00.0000, 2.240754455485809E+08, -4.846140288782742E+08, -1.354919665540892E+08,
2460861.500000000, A.D. 2025-Jul-05 00:00:00.0000, 2.318644805125867E+08, -4.813085462805676E+08, -1.360787490023278E+08,
2460868.500000000, A.D. 2025-Jul-12 00:00:00.0000, 2.395863343918541E+08, -4.778636624648558E+08, -1.366261037847584E+08,
2460875.500000000, A.D. 2025-Jul-19 00:00:00.0000, 2.472389350760460E+08, -4.742807083246142E+08, -1.371339669102554E+08,
2460882.500000000, A.D. 2025-Jul-26 00:00:00.0000, 2.548202294477200E+08, -4.705610268363586E+08, -1.376022798706182E+08,
2460889.500000000, A.D. 2025-Aug-02 00:00:00.0000, 2.623281827478790E+08, -4.667059730160514E+08, -1.380309895468186E+08,
2460896.500000000, A.D. 2025-Aug-09 00:00:00.0000, 2.697607779389104E+08, -4.627169139895654E+08, -1.384200481284938E+08,
2460903.500000000, A.D. 2025-Aug-16 00:00:00.0000, 2.771160151419737E+08, -4.585952292391723E+08, -1.387694130584766E+08,
2460910.500000000, A.D. 2025-Aug-23 00:00:00.0000, 2.843919114419073E+08, -4.543423110085787E+08, -1.390790470275803E+08,
2460917.500000000, A.D. 2025-Aug-30 00:00:00.0000, 2.915865013891592E+08, -4.499595641521063E+08, -1.393489179913895E+08,
2460924.500000000, A.D. 2025-Sep-06 00:00:00.0000, 2.986978367807986E+08, -4.454484044278549E+08, -1.395789989972018E+08,
2460931.500000000, A.D. 2025-Sep-13 00:00:00.0000, 3.057239840493994E+08, -4.408102577174132E+08, -1.397692678704440E+08,
2460938.500000000, A.D. 2025-Sep-20 00:00:00.0000, 3.126630225326946E+08, -4.360465618154382E+08, -1.399197071946250E+08,
2460945.500000000, A.D. 2025-Sep-27 00:00:00.0000, 3.195130446828520E+08, -4.311587676768126E+08, -1.400303044273584E+08,
2460952.500000000, A.D. 2025-Oct-04 00:00:00.0000, 3.262721561990058E+08, -4.261483395819882E+08, -1.401010519233373E+08,
2460959.500000000, A.D. 2025-Oct-11 00:00:00.0000, 3.329384757094696E+08, -4.210167551632821E+08, -1.401319469069590E+08,
2460966.500000000, A.D. 2025-Oct-18 00:00:00.0000, 3.395101342873351E+08, -4.157655055661176E+08, -1.401229914429669E+08,
2460973.500000000, A.D. 2025-Oct-25 00:00:00.0000, 3.459852749390194E+08, -4.103960957336941E+08, -1.400741924169978E+08,
2460980.500000000, A.D. 2025-Nov-01 00:00:00.0000, 3.523620521051764E+08, -4.049100447990134E+08, -1.399855615284230E+08,
2460987.500000000, A.D. 2025-Nov-08 00:00:00.0000, 3.586386312084291E+08, -3.993088866149338E+08, -1.398571153012707E+08,
2460994.500000000, A.D. 2025-Nov-15 00:00:00.0000, 3.648131883957968E+08, -3.935941704798710E+08, -1.396888751316438E+08,
2461001.500000000, A.D. 2025-Nov-22 00:00:00.0000, 3.708839108789008E+08, -3.877674618381938E+08, -1.394808673907983E+08,
2461008.500000000, A.D. 2025-Nov-29 00:00:00.0000, 3.768489977194605E+08, -3.818303418200362E+08, -1.392331234775302E+08,
2461015.500000000, A.D. 2025-Dec-06 00:00:00.0000, 3.827066587830388E+08, -3.757844057567781E+08, -1.389456796225534E+08,
2461022.500000000, A.D. 2025-Dec-13 00:00:00.0000, 3.884551122943645E+08, -3.696312640421795E+08, -1.386185767601529E+08,
2461029.500000000, A.D. 2025-Dec-20 00:00:00.0000, 3.940925844873937E+08, -3.633725443149978E+08, -1.382518607038338E+08,
2461036.500000000, A.D. 2025-Dec-27 00:00:00.0000, 3.996173102770270E+08, -3.570098923712122E+08, -1.378455823159245E+08,
2461043.500000000, A.D. 2026-Jan-03 00:00:00.0000, 4.050275334939725E+08, -3.505449724212104E+08, -1.373997975878779E+08,
2461050.500000000, A.D. 2026-Jan-10 00:00:00.0000, 4.103215067929665E+08, -3.439794673705328E+08, -1.369145676969758E+08,
2461057.500000000, A.D. 2026-Jan-17 00:00:00.0000, 4.154974914671781E+08, -3.373150792152642E+08, -1.363899590682867E+08,
2461064.500000000, A.D. 2026-Jan-24 00:00:00.0000, 4.205537572468077E+08, -3.305535295287924E+08, -1.358260434470755E+08,
2461071.500000000, A.D. 2026-Jan-31 00:00:00.0000, 4.254885821051427E+08, -3.236965600464833E+08, -1.352228979841540E+08,
2461078.500000000, A.D. 2026-Feb-07 00:00:00.0000, 4.303002521332756E+08, -3.167459334043263E+08, -1.345806053440733E+08,
2461085.500000000, A.D. 2026-Feb-14 00:00:00.0000, 4.349870617365345E+08, -3.097034340450726E+08, -1.338992538601870E+08,
2461092.500000000, A.D. 2026-Feb-21 00:00:00.0000, 4.395473145411204E+08, -3.025708687131143E+08, -1.331789377248754E+08,
2461099.500000000, A.D. 2026-Feb-28 00:00:00.0000, 4.439793239279767E+08, -2.953500653840359E+08, -1.324197570216100E+08,
2461106.500000000, A.D. 2026-Mar-07 00:00:00.0000, 4.482814111368276E+08, -2.880428725794740E+08, -1.316218175699805E+08,
2461113.500000000, A.D. 2026-Mar-14 00:00:00.0000, 4.524519037164547E+08, -2.806511614004174E+08, -1.307852310290295E+08,
2461120.500000000, A.D. 2026-Mar-21 00:00:00.0000, 4.564891361046111E+08, -2.731768273808619E+08, -1.299101151855716E+08,
2461127.500000000, A.D. 2026-Mar-28 00:00:00.0000, 4.603914503291644E+08, -2.656217911334050E+08, -1.289965941592418E+08,
2461134.500000000, A.D. 2026-Apr-04 00:00:00.0000, 4.641571962276057E+08, -2.579879987528041E+08, -1.280447985478471E+08,
2461141.500000000, A.D. 2026-Apr-11 00:00:00.0000, 4.677847314595928E+08, -2.502774223376413E+08, -1.270548655674840E+08,
2461148.500000000, A.D. 2026-Apr-18 00:00:00.0000, 4.712724214727219E+08, -2.424920606368544E+08, -1.260269392024775E+08,
2461155.500000000, A.D. 2026-Apr-25 00:00:00.0000, 4.746186394684973E+08, -2.346339398064846E+08, -1.249611703680697E+08,
2461162.500000000, A.D. 2026-May-02 00:00:00.0000, 4.778217664004333E+08, -2.267051143063574E+08, -1.238577170910432E+08,
2461169.500000000, A.D. 2026-May-09 00:00:00.0000, 4.808801911300204E+08, -2.187076680029349E+08, -1.227167447250315E+08,
2461176.500000000, A.D. 2026-May-16 00:00:00.0000, 4.837923111195775E+08, -2.106437153396374E+08, -1.215384262237529E+08,
2461183.500000000, A.D. 2026-May-23 00:00:00.0000, 4.865565337154568E+08, -2.025154015516523E+08, -1.203229423934464E+08,
2461190.500000000, A.D. 2026-May-30 00:00:00.0000, 4.891712759455749E+08, -1.943249016057808E+08, -1.190704819082608E+08,
2461197.500000000, A.D. 2026-Jun-06 00:00:00.0000, 4.916349625156072E+08, -1.860744211396382E+08, -1.177812413274804E+08,
2461204.500000000, A.D. 2026-Jun-13 00:00:00.0000, 4.939460256703349E+08, -1.777661992011307E+08, -1.164554254346438E+08,
2461211.500000000, A.D. 2026-Jun-20 00:00:00.0000, 4.961029064202914E+08, -1.694025098613748E+08, -1.150932476137258E+08,
2461218.500000000, A.D. 2026-Jun-27 00:00:00.0000, 4.981040554372167E+08, -1.609856630405861E+08, -1.136949301349243E+08,
2461225.500000000, A.D. 2026-Jul-04 00:00:00.0000, 4.999479336200684E+08, -1.525180053216579E+08, -1.122607044139542E+08,
2461232.500000000, A.D. 2026-Jul-11 00:00:00.0000, 5.016330125873413E+08, -1.440019208830774E+08, -1.107908112794718E+08,
2461239.500000000, A.D. 2026-Jul-18 00:00:00.0000, 5.031577751903179E+08, -1.354398325250916E+08, -1.092855012555732E+08,
2461246.500000000, A.D. 2026-Jul-25 00:00:00.0000, 5.045207160737357E+08, -1.268342027860302E+08, -1.077450348619197E+08,
2461253.500000000, A.D. 2026-Aug-01 00:00:00.0000, 5.057203423340342E+08, -1.181875351965794E+08, -1.061696829403292E+08,
2461260.500000000, A.D. 2026-Aug-08 00:00:00.0000, 5.067551744918985E+08, -1.095023757074949E+08, -1.045597270308372E+08,
2461267.500000000, A.D. 2026-Aug-15 00:00:00.0000, 5.076237481957129E+08, -1.007813138394531E+08, -1.029154597986735E+08,
2461274.500000000, A.D. 2026-Aug-22 00:00:00.0000, 5.083246158973061E+08, -9.202698233228830E+07, -1.012371853428386E+08,
2461281.500000000, A.D. 2026-Aug-29 00:00:00.0000, 5.088563462145895E+08, -8.324205666568805E+07, -9.952521928916077E+07,
$$EOE